0 SL-8 R/B
1 19770U 89005B   13282.41889860  .00000137  00000-0  53870-4 0  9433
2 19770 074.0478 010.3533 0004195 050.9177 358.9425 14.38193938292906
0 SL-8 R/B
1 19770U 89005B   13283.82559333  .00000138  00000-0  54166-4 0  9449
2 19770 074.0478 007.7633 0004242 047.2792 082.8014 14.38194547293109
0 SL-8 R/B
1 19770U 89005B   13286.53283307  .00000175  00000-0  66126-4 0  9467
2 19770 074.0476 002.7793 0004356 040.5487 060.6156 14.38194991293498
0 SL-8 R/B
1 19770U 89005B   13287.79221264  .00000203  00000-0  75636-4 0  9479
2 19770 074.0474 000.4607 0004393 036.9719 102.0018 14.38195783293671
0 SL-8 R/B
1 19770U 89005B   13289.16057175  .00000207  00000-0  76907-4 0  9487
2 19770 074.0471 357.9415 0004464 033.7062 347.0961 14.38196750293875
0 SL-8 R/B
1 19770U 89005B   13290.34851088  .00000198  00000-0  73992-4 0  9495
2 19770 074.0468 355.7544 0004513 031.0694 017.8172 14.38197290294043
0 SL-8 R/B
1 19770U 89005B   13291.47130278  .00000180  00000-0  68070-4 0  9505
2 19770 074.0467 353.6871 0004556 028.5365 071.2718 14.38197911294203
0 SL-8 R/B
1 19770U 89005B   13292.52046069  .00000207  00000-0  76881-4 0  9516
2 19770 074.0465 351.7553 0004602 026.4763 103.1703 14.38198532294353
0 SL-8 R/B
1 19770U 89005B   13293.77464417  .00000226  00000-0  83201-4 0  9521
2 19770 074.0464 349.4459 0004644 023.8730 116.7093 14.38199086294539
0 SL-8 R/B
1 19770U 89005B   13295.15058888  .00000217  00000-0  80150-4 0  9537
2 19770 074.0463 346.9124 0004695 020.7118 040.9737 14.38200034294732
0 SL-8 R/B
1 19770U 89005B   13296.18652130  .00000211  00000-0  78094-4 0  9540
2 19770 074.0463 345.0050 0004747 018.0741 005.0087 14.38200588294880
